METEOSAT-9 (MSG-2)      
1 28912U 05049B   24148.88035466  .00000133  00000+0  00000+0 0  9994
2 28912   7.6410  61.0388 0001658   2.4330 185.1066  1.00268384 67529
GOES 13                 
1 29155U 06018A   24148.82247723 -.00000225  00000+0  00000+0 0  9999
2 29155   2.5733  85.5117 0082653 254.9645 160.5617  0.99107930 35833
GPS BIIR-16M            
1 29601U 06052A   24148.06043336  .00000016  00000+0  00000+0 0  9990
2 29601  55.1434 243.8133 0085632  82.8290 278.1927  2.00566509128346
GPS BIIR-17M            
1 32260U 07047A   24148.86055288  .00000047  00000+0  00000+0 0  9991
2 32260  53.5975 111.0911 0154247  74.9154 286.7551  2.00565117121764
GPS BIIR-18M            
1 32384U 07062A   24148.92324708 -.00000032  00000+0  00000+0 0  9993
2 32384  55.6569 304.1678 0028095 149.8860  23.1252  2.00573585120460
SARSAT 12 (NOAA 19)     
1 33591U 09005A   24149.19117614  .00000252  00000+0  15963-3 0  9990
2 33591  99.0481 204.7777 0013501 353.1735   6.9250 14.13013829788800
GOES 14                 
1 35491U 09033A   24148.59425005 -.00000055  00000+0  00000+0 0  9995
2 35491   0.2915 106.2745 0003921 338.5961 266.0883  1.00272357 54588
GOES 15                 
1 36411U 10008A   24148.90257771  .00000046  00000+0  00000+0 0  9999
2 36411   0.2471  90.0153 0001325  98.0670  84.4228  1.00265971 52118
GSAT0101 (GALILEO-PFM)  
1 37846U 11060A   24143.91360162 -.00000071  00000+0  00000+0 0  9995
2 37846  57.1277   2.2161 0003892  37.8710 322.2115  1.70476009 78240
GSAT0102 (GALILEO-FM2)  
1 37847U 11060B   24146.48110541 -.00000068  00000+0  00000+0 0  9991
2 37847  57.1288   2.1468 0003884   5.8254 175.7220  1.70475367 78290
LUCH 5A                 
1 37951U 11074B   24149.15003431 -.00000041  00000+0  00000+0 0  9999
2 37951   6.8342  85.2907 0004175 353.8131  27.9971  1.00269632 45678
METEOSAT-10 (MSG-3)     
1 38552U 12035B   24148.75899799  .00000003  00000+0  00000+0 0  9997
2 38552   2.9201  60.8250 0001749 306.1502 152.1593  1.00274368 43338
SARSAT 13 (METOP-B)     
1 38771U 12049A   24149.18359004  .00000201  00000+0  11164-3 0  9990
2 38771  98.6282 206.8538 0001894  94.0670 266.0724 14.21542405606707
GPS BIIF-3              
1 38833U 12053A   24148.95684621  .00000078  00000+0  00000+0 0  9999
2 38833  53.5154 174.2956 0150962  55.5723 305.9009  2.00558265 84397
GSAT0103 (GALILEO-FM3)  
1 38857U 12055A   24147.47217447  .00000057  00000+0  00000+0 0  9998
2 38857  55.3979 122.2018 0005794 279.8741  80.0215  1.70473529 72193
GPS BIIF-4              
1 39166U 13023A   24148.32143742 -.00000029  00000+0  00000+0 0  9999
2 39166  55.1321 299.4216 0124011  44.6918 316.2870  2.00562843 80823
INSAT-3D                
1 39216U 13038B   24148.77537293 -.00000148  00000+0  00000+0 0  9990
2 39216   0.0228 263.0388 0000659  12.6576 331.3410  1.00274390 39555
GPS BIIF-5              
1 39533U 14008A   24147.82452156  .00000076  00000+0  00000+0 0  9998
2 39533  53.5982 179.9365 0072875 220.1463 139.3801  2.00567164 74618
LUCH 5V                 
1 39727U 14023A   24149.13576260 -.00000261  00000+0  00000+0 0  9996
2 39727   3.2479  76.1667 0001894  29.4860 284.1545  1.00273367554988
GPS BIIF-6              
1 39741U 14026A   24148.59988292 -.00000068  00000+0  00000+0 0  9991
2 39741  56.7103   0.6646 0031402 317.1683  42.6316  2.00569805 73488
GPS BIIF-7              
1 40105U 14045A   24148.69303912  .00000059  00000+0  00000+0 0  9998
2 40105  54.9230 118.4271 0025007 115.7248 244.5068  2.00564803 71916
GSAT0201 (GALILEO 5)    
1 40128U 14050A   24146.44974877 -.00000056  00000+0  00000+0 0  9992
2 40128  49.6842 303.9767 1610815 150.3445 219.8665  1.85519355 64356
GSAT0202 (GALILEO 6)    
1 40129U 14050B   24147.24711652 -.00000052  00000+0  00000+0 0  9998
2 40129  49.7004 303.0212 1609548 151.1795 218.7721  1.85519987 66536
GPS BIIF-8              
1 40294U 14068A   24148.06606125 -.00000038  00000+0  00000+0 0  9993
2 40294  56.4038  60.0645 0053149  61.2980 299.2540  2.00558341 70147
GLONASS-K 2             
1 40315U 14075A   24146.60884952  .00000060  00000+0  00000+0 0  9993
2 40315  63.6212 216.4615 0020414 209.5075 150.4621  2.13101480 73817
GPS BIIF-9              
1 40534U 15013A   24148.69695374  .00000017  00000+0  00000+0 0  9990
2 40534  53.3501 235.2475 0087518  29.7707 330.7866  2.00566619 66778
GSAT0203 (GALILEO 7)    
1 40544U 15017A   24147.79894973 -.00000069  00000+0  00000+0 0  9999
2 40544  56.9233   2.0479 0001641 289.6684  70.3619  1.70475793 56396
GSAT0204 (GALILEO 8)    
1 40545U 15017B   24147.46652697 -.00000069  00000+0  00000+0 0  9999
2 40545  56.9294   2.0723 0001106 251.5082 108.5287  1.70475522 19431
GPS BIIF-10             
1 40730U 15033A   24145.36875947 -.00000038  00000+0  00000+0 0  9991
2 40730  54.6184 298.0255 0093989  19.5179 340.8166  2.00568211 64873
METEOSAT-11 (MSG-4)     
1 40732U 15034A   24149.11869390  .00000070  00000+0  00000+0 0  9991
2 40732   1.3391  68.6016 0001609 162.0375  67.4575  1.00272771 32491
GSAT0205 (GALILEO 9)    
1 40889U 15045A   24147.23474335  .00000018  00000+0  00000+0 0  9990
2 40889  55.2276 242.3770 0003781  38.2570 321.8229  1.70474082 54196
GSAT0206 (GALILEO 10)   
1 40890U 15045B   24148.04197661  .00000017  00000+0  00000+0 0  9995
2 40890  55.2262 242.3501 0001514 359.8680   0.1862  1.70473978 54239
GPS BIIF-11             
1 41019U 15062A   24148.41835854 -.00000039  00000+0  00000+0 0  9997
2 41019  56.3846  59.9037 0094888 225.2043 134.0413  2.00562388 62779
ELEKTRO-L 2             
1 41105U 15074A   24149.18560521 -.00000108  00000+0  00000+0 0  9994
2 41105   4.7915  79.6998 0000296 195.5057  23.3696  1.00271939 30998
GSAT0209 (GALILEO 12)   
1 41174U 15079A   24147.62505376  .00000057  00000+0  00000+0 0  9991
2 41174  55.4166 121.9066 0005474 312.0968  47.8175  1.70474111 52544
GSAT0208 (GALILEO 11)   
1 41175U 15079B   24148.43138710  .00000057  00000+0  00000+0 0  9996
2 41175  55.4154 121.8822 0004760 310.3780  49.5431  1.70474052 52392
GPS BIIF-12             
1 41328U 16007A   24148.49899486  .00000060  00000+0  00000+0 0  9992
2 41328  55.1187 119.2725 0079776 238.8033 120.3868  2.00562860 60785
GSAT0211 (GALILEO 14)   
1 41549U 16030A   24147.96768094  .00000017  00000+0  00000+0 0  9996
2 41549  55.3746 242.3610 0002209 337.8879  22.1568  1.70474056 49866
GSAT0210 (GALILEO 13)   
1 41550U 16030B   24144.73942809  .00000010  00000+0  00000+0 0  9991
2 41550  55.3752 242.4511 0002233 266.5391  93.4747  1.70474036 49802
INSAT-3DR               
1 41752U 16054A   24148.91368902 -.00000068  00000+0  00000+0 0  9995
2 41752   0.1456  92.4840 0010100 180.1583  16.2374  1.00270925 28292
GSAT0207 (GALILEO 15)   
1 41859U 16069A   24148.50528970  .00000057  00000+0  00000+0 0  9994
2 41859  55.0821 121.8889 0005738 300.3113  59.5948  1.70474031 46828
GSAT0212 (GALILEO 16)   
1 41860U 16069B   24147.77301906  .00000056  00000+0  00000+0 0  9991
2 41860  55.0790 121.9057 0004271 320.4383  39.4917  1.70474277 46843
GSAT0213 (GALILEO 17)   
1 41861U 16069C   24147.55467522  .00000056  00000+0  00000+0 0  9995
2 41861  55.0811 121.9183 0005773 285.1435  74.7535  1.70472924 46835
GSAT0214 (GALILEO 18)   
1 41862U 16069D   24148.28677568  .00000057  00000+0  00000+0 0  9991
2 41862  55.0802 121.8917 0004764 288.4374  71.4732  1.70474276 46843
GOES 16                 
1 41866U 16071A   24148.81560247 -.00000239  00000+0  00000+0 0  9995
2 41866   0.0505 264.0029 0000572 168.8384  31.4334  1.00272013 27588
GSAT-17                 
1 42815U 17040B   24148.63442972 -.00000248  00000+0  00000+0 0  9991
2 42815   0.0823  97.7824 0001822 210.5416 259.2381  1.00270576 25267
GSAT0215 (GALILEO 19)   
1 43055U 17079A   24148.18995978  .00000017  00000+0  00000+0 0  9992
2 43055  55.3512 242.1771 0001633 251.5849 108.4520  1.70474665 40184
GSAT0216 (GALILEO 20)   
1 43056U 17079B   24146.72192853  .00000018  00000+0  00000+0 0  9993
2 43056  55.3518 242.2176 0002562 269.2860  90.7365  1.70474889 40179
GSAT0217 (GALILEO 21)   
1 43057U 17079C   24148.70213179  .00000015  00000+0  00000+0 0  9996
2 43057  55.3490 242.1618 0002564 288.5037  71.5227  1.70474791 40199
GSAT0218 (GALILEO 22)   
1 43058U 17079D   24145.98926292  .00000017  00000+0  00000+0 0  9993
2 43058  55.3507 242.2341 0003687 264.6971  95.3091  1.70474706 40179
GOES 17                 
1 43226U 18022A   24148.74841082 -.00000081  00000+0  00000+0 0  9991
2 43226   0.0453 125.5945 0000874 319.3098 325.6061  1.00271568 22898
GSAT0221 (GALILEO 25)   
1 43564U 18060A   24147.06312599 -.00000068  00000+0  00000+0 0  9993
2 43564  57.3035   2.0628 0002107 330.0301  30.0081  1.70475639 36345
GSAT0222 (GALILEO 26)   
1 43565U 18060B   24147.86815303 -.00000068  00000+0  00000+0 0  9993
2 43565  57.3070   2.0429 0001506 258.5794 101.4519  1.70475362 36405
GSAT0219 (GALILEO 23)   
1 43566U 18060C   24146.33032036 -.00000067  00000+0  00000+0 0  9998
2 43566  57.3063   2.0861 0002495 330.1012  29.9366  1.70475697 36355
GSAT0220 (GALILEO 24)   
1 43567U 18060D   24147.13751578 -.00000068  00000+0  00000+0 0  9998
2 43567  57.3061   2.0650 0002152 338.0521  21.9888  1.70475479 36351
BEIDOU-3 M13            
1 43622U 18072A   24148.33705008  .00000008  00000+0  00000+0 0  9996
2 43622  55.9779  87.5752 0008117 306.3265  53.5757  1.86231444 38676
BEIDOU-3 M14            
1 43623U 18072B   24148.20250479  .00000008  00000+0  00000+0 0  9990
2 43623  55.9797  87.5728 0006237 330.0585  29.8822  1.86231447 38661
GPS BIII-1              
1 43873U 18109A   24148.28189951  .00000062  00000+0  00000+0 0  9992
2 43873  55.2900 121.8542 0028946 195.7729 259.5270  2.00554912 40013
METEOR-M2 2             
1 44387U 19038A   24149.19390294  .00000080  00000+0  54746-4 0  9991
2 44387  98.8257 118.3407 0002040  51.5673 308.5688 14.23889032254542
